NORAD_CAT_ID,OBJECT_NAME,OBJECT_TYPE,EPOCH,MEAN_MOTION,ECCENTRICITY,INCLINATION,RA_OF_ASC_NODE,ARG_OF_PERICENTER,MEAN_ANOMALY,BSTAR,MEAN_MOTION_DOT,MEAN_MOTION_DDOT,TLE_LINE0,TLE_LINE1,TLE_LINE2,SEMIMAJOR_AXIS,PERIOD,APOGEE,PERIGEE,DECAYED
53026.0,STARLINK-4119,PAYLOAD,2024-01-10 06:41:35,15.08836884,0.0001953,53.2193,27.8301,121.507,238.6113,4.2046e-05,3.81e-06,0.0,0 STARLINK-4119,1 53026U 22076AS  24010.27887901  .00000381  00000-0  42046-4 0  9994,2 53026  53.2193  27.8301 0001953 121.5070 238.6113 15.08836884 83811,6917.89,95.438,541.106,538.404,0.0
53026.0,STARLINK-4119,PAYLOAD,2024-01-11 04:56:58,15.08840878,0.0002005,53.2195,23.6679,124.9514,235.1667,5.2214e-05,5.43e-06,0.0,0 STARLINK-4119,1 53026U 22076AS  24011.20623754  .00000543  00000-0  52214-4 0  9990,2 53026  53.2195  23.6679 0002005 124.9514 235.1667 15.08840878 84426,6917.878,95.437,541.13,538.356,0.0
53026.0,STARLINK-4119,PAYLOAD,2024-01-11 09:43:07,15.08844522,0.0001431,53.2191,22.7599,93.2108,266.9048,0.00013948,1.933e-05,0.0,0 STARLINK-4119,1 53026U 22076AS  24011.40495339  .00001933  00000-0  13948-3 0  9992,2 53026  53.2191  22.7599 0001431  93.2108 266.9048 15.08844522 83987,6917.867,95.437,540.722,538.742,0.0
53026.0,STARLINK-4119,PAYLOAD,2024-01-12 09:33:55,15.08844473,0.0001614,53.2194,18.3025,90.1946,269.9231,9.9714e-05,1.299e-05,0.0,0 STARLINK-4119,1 53026U 22076AS  24012.39855513  .00001299  00000-0  99714-4 0  9996,2 53026  53.2194  18.3025 0001614  90.1946 269.9231 15.08844473 84606,6917.867,95.437,540.848,538.615,0.0
53026.0,STARLINK-4119,PAYLOAD,2024-01-13 04:38:33,15.0884103,0.0001708,53.2196,14.7334,98.2911,261.8275,-3.0016e-05,-7.66e-06,0.0,0 STARLINK-4119,1 53026U 22076AS  24013.19344208 -.00000766  00000-0 -30016-4 0  9999,2 53026  53.2196  14.7334 0001708  98.2911 261.8275 15.08841030 84724,6917.877,95.437,540.924,538.561,0.0
53026.0,STARLINK-4119,PAYLOAD,2024-01-13 06:13:56,15.08841889,0.0001814,53.2195,14.4371,86.2601,273.8599,-1.7484e-05,-5.66e-06,0.0,0 STARLINK-4119,1 53026U 22076AS  24013.25968212 -.00000566  00000-0 -17484-4 0  9995,2 53026  53.2195  14.4371 0001814  86.2601 273.8599 15.08841889 84265,6917.875,95.437,540.995,538.485,0.0
53026.0,STARLINK-4119,PAYLOAD,2024-01-14 09:15:29,15.08842943,0.0001405,53.2173,9.3806,91.2633,268.852,5.7949e-05,6.35e-06,0.0,0 STARLINK-4119,1 53026U 22076AS  24014.38576100  .00000635  00000-0  57949-4 0  9996,2 53026  53.2173   9.3806 0001405  91.2633 268.8520 15.08842943 84905,6917.871,95.437,540.708,538.764,0.0
53026.0,STARLINK-4119,PAYLOAD,2024-01-15 09:06:16,15.08855246,0.0001611,53.2185,4.9183,91.3732,268.7444,0.00023287,3.422e-05,0.0,0 STARLINK-4119,1 53026U 22076AS  24015.37935594  .00003422  00000-0  23287-3 0  9996,2 53026  53.2185   4.9183 0001611  91.3732 268.7444 15.08855246 84585,6917.834,95.437,540.813,538.584,0.0
53026.0,STARLINK-4119,PAYLOAD,2024-01-15 23:24:50,15.08711705,0.0002379,53.2181,2.2349,105.9673,254.1582,0.0034919,0.00055529,0.0,0 STARLINK-4119,1 53026U 22076AS  24015.97558502  .00055529  00000-0  34919-2 0  9990,2 53026  53.2181   2.2349 0002379 105.9673 254.1582 15.08711705 85140,6918.273,95.446,541.783,538.492,0.0
53026.0,STARLINK-4119,PAYLOAD,2024-01-16 08:57:04,15.08837448,0.000165,53.2171,0.4611,85.5246,274.5934,3.55e-05,2.77e-06,0.0,0 STARLINK-4119,1 53026U 22076AS  24016.37296854  .00000277  00000-0  35500-4 0  9993,2 53026  53.2171   0.4611 0001650  85.5246 274.5934 15.08837448 85208,6917.888,95.438,540.895,538.612,0.0
53026.0,STARLINK-4119,PAYLOAD,2024-01-17 04:01:41,15.08848565,0.0001435,53.2176,356.8926,102.0287,258.0866,3.1842e-05,2.19e-06,0.0,0 STARLINK-4119,1 53026U 22076AS  24017.16784105  .00000219  00000-0  31842-4 0  9993,2 53026  53.2176 356.8926 0001435 102.0287 258.0866 15.08848565 85327,6917.854,95.437,540.712,538.726,0.0
53026.0,STARLINK-4119,PAYLOAD,2024-01-18 03:52:29,15.08832307,0.0001453,53.2179,352.4304,97.148,262.9677,1.044e-05,-1.22e-06,0.0,0 STARLINK-4119,1 53026U 22076AS  24018.16145140 -.00000122  00000-0  10440-4 0  9999,2 53026  53.2179 352.4304 0001453  97.1480 262.9677 15.08832307 85478,6917.904,95.438,540.774,538.764,0.0
53026.0,STARLINK-4119,PAYLOAD,2024-01-18 07:03:16,15.08819245,0.0001537,53.2177,351.838,87.7567,272.3601,-0.00017569,-3.081e-05,0.0,0 STARLINK-4119,1 53026U 22076AS  24018.29394012 -.00003081  00000-0 -17569-3 0  9993,2 53026  53.2177 351.8380 0001537  87.7567 272.3601 15.08819245 85497,6917.944,95.439,540.872,538.746,0.0
53026.0,STARLINK-4119,PAYLOAD,2024-01-19 03:43:16,15.08851511,0.0001628,53.217,347.9724,88.3995,271.7184,0.00020841,3.031e-05,0.0,0 STARLINK-4119,1 53026U 22076AS  24019.15504843  .00003031  00000-0  20841-3 0  9994,2 53026  53.2170 347.9724 0001628  88.3995 271.7184 15.08851511 85627,6917.845,95.437,540.836,538.584,0.0
53026.0,STARLINK-4119,PAYLOAD,2024-01-19 06:54:01,15.0885867,0.0001591,53.2181,347.3777,85.4355,274.6819,0.00018486,2.657e-05,0.0,0 STARLINK-4119,1 53026U 22076AS  24019.28752140  .00002657  00000-0  18486-3 0  9998,2 53026  53.2181 347.3777 0001591  85.4355 274.6819 15.08858670 85640,6917.823,95.436,540.789,538.588,0.0
53026.0,STARLINK-4119,PAYLOAD,2024-01-20 03:34:03,15.08848221,0.0001505,53.2179,343.5055,104.2932,255.8228,0.00024447,3.606e-05,0.0,0 STARLINK-4119,1 53026U 22076AS  24020.14864693  .00003606  00000-0  24447-3 0  9991,2 53026  53.2179 343.5055 0001505 104.2932 255.8228 15.08848221 85770,6917.855,95.437,540.761,538.679,0.0
53026.0,STARLINK-4119,PAYLOAD,2024-01-20 06:44:49,15.08850103,0.0001499,53.2183,342.9102,102.1636,257.9524,0.00032422,4.877e-05,0.0,0 STARLINK-4119,1 53026U 22076AS  24020.28112608  .00004877  00000-0  32422-3 0  9991,2 53026  53.2183 342.9102 0001499 102.1636 257.9524 15.08850103 85326,6917.85,95.437,540.751,538.678,0.0
53026.0,STARLINK-4119,PAYLOAD,2024-01-21 03:24:50,15.08847617,0.0001584,53.2171,339.0501,94.8027,265.3146,-5.0046e-06,-3.68e-06,0.0,0 STARLINK-4119,1 53026U 22076AS  24021.14224770 -.00000368  00000-0 -50046-5 0  9998,2 53026  53.2171 339.0501 0001584  94.8027 265.3146 15.08847617 85924,6917.857,95.437,540.818,538.626,0.0
53026.0,STARLINK-4119,PAYLOAD,2024-01-21 20:54:04,15.08845843,0.0001529,53.2166,335.784,77.1548,282.9614,0.00010039,1.31e-05,0.0,0 STARLINK-4119,1 53026U 22076AS  24021.87089033  .00001310  00000-0  10039-3 0  9991,2 53026  53.2166 335.7840 0001529  77.1548 282.9614 15.08845843 85562,6917.863,95.437,540.785,538.67,0.0
53026.0,STARLINK-4119,PAYLOAD,2024-01-22 03:15:37,15.0885042,0.0001595,53.2186,334.5947,57.9997,302.115,0.00027515,4.095e-05,0.0,0 STARLINK-4119,1 53026U 22076AS  24022.13584976  .00004095  00000-0  27515-3 0  9997,2 53026  53.2186 334.5947 0001595  57.9997 302.1150 15.08850420 86070,6917.849,95.437,540.817,538.61,0.0
53026.0,STARLINK-4119,PAYLOAD,2024-01-22 06:26:23,15.08857469,0.0001521,53.217,333.9956,92.8543,267.2624,0.0004264,6.508e-05,0.0,0 STARLINK-4119,1 53026U 22076AS  24022.26832526  .00006508  00000-0  42640-3 0  9995,2 53026  53.2170 333.9956 0001521  92.8543 267.2624 15.08857469 86099,6917.827,95.436,540.744,538.64,0.0
53026.0,STARLINK-4119,PAYLOAD,2024-01-23 01:31:01,15.08843481,0.0001888,53.2185,330.4183,118.9519,241.1663,0.00011951,1.615e-05,0.0,0 STARLINK-4119,1 53026U 22076AS  24023.06320840  .00001615  00000-0  11951-3 0  9990,2 53026  53.2185 330.4183 0001888 118.9519 241.1663 15.08843481 86215,6917.87,95.437,541.041,538.429,0.0
53026.0,STARLINK-4119,PAYLOAD,2024-01-24 02:57:11,15.08846897,0.0001419,53.2182,325.6703,91.8965,268.219,0.00016916,2.406e-05,0.0,0 STARLINK-4119,1 53026U 22076AS  24024.12304950  .00002406  00000-0  16916-3 0  9997,2 53026  53.2182 325.6703 0001419  91.8965 268.2190 15.08846897 86376,6917.859,95.437,540.706,538.743,0.0
53026.0,STARLINK-4119,PAYLOAD,2024-01-25 01:12:35,15.08840334,0.0001543,53.219,321.5101,110.753,249.3627,9.1591e-05,1.17e-05,0.0,0 STARLINK-4119,1 53026U 22076AS  24025.05041328  .00001170  00000-0  91591-4 0  9997,2 53026  53.2190 321.5101 0001543 110.7530 249.3627 15.08840334 86510,6917.879,95.438,540.812,538.677,0.0
53026.0,STARLINK-4119,PAYLOAD,2024-01-25 21:52:37,15.08831591,0.0001514,53.2177,317.6401,108.3742,251.7415,0.00015105,2.116e-05,0.0,0 STARLINK-4119,1 53026U 22076AS  24025.91153981  .00002116  00000-0  15105-3 0  9998,2 53026  53.2177 317.6401 0001514 108.3742 251.7415 15.08831591 86179,6917.906,95.438,540.818,538.724,0.0
53026.0,STARLINK-4119,PAYLOAD,2024-01-26 02:38:46,15.08823184,0.0001464,53.2178,316.7491,94.7261,265.3898,0.0004827,7.399e-05,0.0,0 STARLINK-4119,1 53026U 22076AS  24026.11026619  .00007399  00000-0  48270-3 0  9995,2 53026  53.2178 316.7491 0001464  94.7261 265.3898 15.08823184 86677,6917.932,95.439,540.81,538.784,0.0
53026.0,STARLINK-4119,PAYLOAD,2024-01-27 02:29:33,15.08844303,0.0001425,53.2174,312.2907,76.5546,283.5605,0.00023063,3.385e-05,0.0,0 STARLINK-4119,1 53026U 22076AS  24027.10385878  .00003385  00000-0  23063-3 0  9994,2 53026  53.2174 312.2907 0001425  76.5546 283.5605 15.08844303 86828,6917.867,95.437,540.718,538.746,0.0
53026.0,STARLINK-4119,PAYLOAD,2024-01-28 03:55:43,15.08850622,0.0002403,53.2201,307.5255,55.1111,305.0106,-2.8544e-05,-7.43e-06,0.0,0 STARLINK-4119,1 53026U 22076AS  24028.16369885 -.00000743  00000-0 -28544-4 0  9998,2 53026  53.2201 307.5255 0002403  55.1111 305.0106 15.08850622 86984,6917.848,95.437,541.375,538.051,0.0
53026.0,STARLINK-4119,PAYLOAD,2024-01-29 03:46:30,15.08845799,0.0001772,53.2196,303.0625,75.5666,284.5523,1.587e-05,-3.5e-07,0.0,0 STARLINK-4119,1 53026U 22076AS  24029.15730135 -.00000035  00000-0  15870-4 0  9999,2 53026  53.2196 303.0625 0001772  75.5666 284.5523 15.08845799 87139,6917.863,95.437,540.954,538.502,0.0
53026.0,STARLINK-4119,PAYLOAD,2024-01-30 00:26:30,15.08852725,0.0001682,53.2197,299.1978,86.2256,273.8929,6.1131e-05,6.85e-06,0.0,0 STARLINK-4119,1 53026U 22076AS  24030.01841329  .00000685  00000-0  61131-4 0  9995,2 53026  53.2197 299.1978 0001682  86.2256 273.8929 15.08852725 87262,6917.841,95.437,540.87,538.543,0.0
